[{"OBJECT_NAME":"STARLINK-33887","OBJECT_ID":"2025-085S","EPOCH":"2026-03-09T22:35:57.068736","MEAN_MOTION":15.27576156,"ECCENTRICITY":0.00013272,"INCLINATION":43.0031,"RA_OF_ASC_NODE":29.0446,"ARG_OF_PERICENTER":270.6338,"MEAN_ANOMALY":89.4362,"EPHEMERIS_TYPE":0,"CLASSIFICATION_TYPE":"U","NORAD_CAT_ID":63680,"ELEMENT_SET_NO":999,"REV_AT_EPOCH":4897,"BSTAR":0.00094671814,"MEAN_MOTION_DOT":0.00025878,"MEAN_MOTION_DDOT":0},{"OBJECT_NAME":"CZ-6A DEB","OBJECT_ID":"2024-140ZB","EPOCH":"2026-03-09T13:53:53.181600","MEAN_MOTION":15.04943741,"ECCENTRICITY":0.0099448,"INCLINATION":89.0521,"RA_OF_ASC_NODE":283.407,"ARG_OF_PERICENTER":138.6562,"MEAN_ANOMALY":222.2259,"EPHEMERIS_TYPE":0,"CLASSIFICATION_TYPE":"U","NORAD_CAT_ID":61434,"ELEMENT_SET_NO":999,"REV_AT_EPOCH":8386,"BSTAR":0.0022399,"MEAN_MOTION_DOT":0.00035579,"MEAN_MOTION_DDOT":0}]
